ATLAS CENTAUR 2         
1 00694U 63047A   26082.75531826  .00002107  00000+0  24367-3 0  9998
2 00694  30.3545 117.0314 0547408 204.2567 153.1320 14.12118639133617
THOR AGENA D R/B        
1 00733U 64002A   26083.31410102  .00000166  00000+0  76374-4 0  9999
2 00733  99.1219  97.4486 0032359 214.4741 145.4343 14.34027547240398
SL-3 R/B                
1 00877U 64053B   26083.26832194  .00000167  00000+0  56518-4 0  9996
2 00877  65.0759 288.4951 0080258 287.6320  71.6027 14.61377786268924
SL-8 R/B                
1 02802U 67045B   26083.10739281  .00000302  00000+0  91335-4 0  9993
2 02802  74.0120 321.1653 0064734 324.2056  35.4771 14.45634067 91103
SL-8 R/B                
1 03230U 68040B   26083.28382385  .00003175  00000+0  23542-3 0  9998
2 03230  74.0292 283.8697 0023454 101.9355 258.4465 15.03348616 92203
OAO 2                   
1 03597U 68110A   26082.99446770  .00000240  00000+0  69778-4 0  9990
2 03597  34.9926 185.3536 0006092 309.0164  50.9984 14.47315575 21178
ISIS 1                  
1 03669U 69009A   26083.23414609  .00000119  00000+0  69705-4 0  9997
2 03669  88.4518 153.7218 1707871  59.8229 316.0988 11.30417954350179
SERT 2                  
1 04327U 70009A   26083.12095359  .00000015  00000+0  76716-4 0  9991
2 04327  99.2778  25.4262 0005523 121.9227 248.7259 13.58731115781851
SL-3 R/B                
1 05118U 71028B   26083.20044487  .00043855  00000+0  49084-3 0  9993
2 05118  81.2375  34.0917 0013923 223.8745 136.1404 15.62399091990930
ASTEX 1                 
1 05560U 71089A   26083.16870591  .00000429  00000+0  10899-3 0  9991
2 05560  92.7100 156.4400 0016954  42.6048 317.6470 14.50784219864407
SL-8 R/B                
1 05730U 71119B   26083.19748909  .00007109  00000+0  37236-3 0  9990
2 05730  73.8860 148.5967 0546900 112.1646 253.8472 14.38155908657579
OAO 3 (COPERNICUS)      
1 06153U 72065A   26083.11725781  .00000345  00000+0  74990-4 0  9990
2 06153  35.0048 215.1139 0007327 278.5947 248.0783 14.60009073848305
